JILIN-1 06              
1 43024U 17074C   26068.94927284  .00008833  00000+0  28432-3 0  9992
2 43024  97.4715 171.0354 0006128 223.0031 137.0732 15.32444387458637
SITRO-AIS 12 (SMIRENNIY)
1 57204U 23091AQ  26068.95482659  .00024635  00000+0  73428-3 0  9999
2 57204  97.5191 137.5752 0008005  69.7442 290.4661 15.34632407149532
